      2.10          N: GNSS NAV DATA                        RINEX VERSION / TYPE
fic2rin                                 03/12/2024 00:18:05 PGM / RUN BY / DATE
                                                            END OF HEADER
2  24  3 11  1 59 44.0 -.472284387797D-03  .613908923697D-11  .000000000000D+00
     .100000000000D+02 -.540625000000D+01  .419017453759D-08 -.276876264436D-01
    -.381842255592D-06  .161184539320D-01  .147838145494D-04  .515371353531D+04
     .935840000000D+05 -.216066837311D-06 -.296627969039D+01 -.210478901863D-06
     .967862159824D+00  .104812500000D+03 -.122351120936D+01 -.805176395972D-08
    -.146434671020D-10  .100000000000D+01  .230500000000D+04  .000000000000D+00
     .240000000000D+01  .000000000000D+00 -.176951289177D-07  .100000000000D+02
     .864000000000D+05  .400000000000D+01
1  24  3 11  1 59 44.0  .173336826265D-03  .193267624127D-11  .000000000000D+00
     .500000000000D+01  .155625000000D+02  .354729061604D-08 -.270432939040D+01
     .633299350739D-06  .128655809676D-01  .148750841618D-04  .515401048279D+04
     .935840000000D+05  .176951289177D-06 -.286135832507D+01 -.145286321640D-06
     .990964003297D+00  .105156250000D+03  .100085289210D+01 -.732601944383D-08
     .183936233111D-09  .100000000000D+01  .230500000000D+04  .000000000000D+00
     .240000000000D+01  .630000000000D+02  .512227416039D-08  .500000000000D+01
     .864000000000D+05  .400000000000D+01
8  24  3 11  1 59 44.0  .459365546703D-04  .277395884041D-10  .000000000000D+00
     .490000000000D+02 -.872812500000D+02  .513628537547D-08 -.330152594146D+00
    -.444985926151D-05  .942421320360D-02  .537745654583D-05  .515359340286D+04
     .935840000000D+05  .150874257088D-06  .232109940439D+01  .763684511185D-07
     .954172383098D+00  .270562500000D+03  .336203044846D+00 -.869964808955D-08
    -.509664086698D-09  .100000000000D+01  .230500000000D+04  .000000000000D+00
     .240000000000D+01  .000000000000D+00  .512227416039D-08  .490000000000D+02
     .864000000000D+05  .400000000000D+01
7  24  3 11  2  0  0.0 -.814273953438D-04 -.875388650456D-11  .000000000000D+00
     .380000000000D+02 -.871875000000D+01  .419838916547D-08  .312032367385D+01
    -.564381480217D-06  .181125628296D-01  .147130340338D-04  .515366968918D+04
     .936000000000D+05  .856816768646D-07  .259517778826D+00 -.188127160072D-06
     .950835715656D+00  .875000000000D+02 -.214456206507D+01 -.755281460504D-08
     .138577200868D-09  .100000000000D+01  .230500000000D+04  .000000000000D+00
     .240000000000D+01  .000000000000D+00 -.111758708954D-07  .380000000000D+02
     .864000000000D+05  .400000000000D+01
5  24  3 11  2  0  0.0 -.164928380400D-03 -.136424205266D-11  .000000000000D+00
     .240000000000D+02  .870625000000D+02  .481698636110D-08  .306276631480D-01
     .476837158203D-05  .568678136915D-02  .445730984211D-05  .515356897926D+04
     .936000000000D+05 -.260770320892D-07 -.188353803361D+01  .651925802231D-07
     .969910588921D+00  .297750000000D+03  .123106532334D+01 -.852714090393D-08
     .401088135502D-09  .100000000000D+01  .230500000000D+04  .000000000000D+00
     .240000000000D+01  .000000000000D+00 -.111758708954D-07  .240000000000D+02
     .864000000000D+05  .400000000000D+01
6  24  3 11  2  0  0.0  .373154878616D-03 -.161435309565D-10  .000000000000D+00
     .118000000000D+03  .253125000000D+02  .358264923172D-08 -.228502813968D+01
     .138580799103D-05  .312991184182D-02  .141169875860D-04  .515358794212D+04
     .936000000000D+05 -.223517417908D-07 -.286976495309D+01  .670552253723D-07
     .990065440977D+00  .125656250000D+03 -.738392004442D+00 -.746709674884D-08
     .914323799542D-10  .100000000000D+01  .230500000000D+04  .000000000000D+00
     .340000000000D+01  .000000000000D+00  .372529029846D-08  .118000000000D+03
     .864000000000D+05  .400000000000D+01
3  24  3 11  2  0  0.0  .244630966336D-03  .229647412198D-10  .000000000000D+00
     .860000000000D+02  .832500000000D+02  .443089885044D-08  .273052040337D+01
     .420399010181D-05  .517588993534D-02  .507198274136D-05  .515375797844D+04
     .936000000000D+05 -.558793544769D-07 -.183319359946D+01 -.128522515297D-06
     .982903817684D+00  .289437500000D+03  .106399097495D+01 -.814926802115D-08
     .431803700643D-09  .100000000000D+01  .230500000000D+04  .000000000000D+00
     .240000000000D+01  .000000000000D+00  .186264514923D-08  .860000000000D+02
     .864000000000D+05  .400000000000D+01
4  24  3 11  2  0  0.0  .311932526529D-03  .909494701773D-11  .000000000000D+00
     .800000000000D+01 -.103062500000D+03  .467590905610D-08 -.586792892108D+00
    -.549666583538D-05  .279316562228D-02  .597350299358D-05  .515377380371D+04
     .936000000000D+05  .130385160446D-06 -.753416221393D+00 -.149011611938D-07
     .964489274918D+00  .266250000000D+03 -.296394276946D+01 -.838427781025D-08
    -.685028534188D-09  .100000000000D+01  .230500000000D+04  .000000000000D+00
     .240000000000D+01  .000000000000D+00 -.465661287308D-08  .776000000000D+03
     .864000000000D+05  .400000000000D+01
9  24  3 11  2  0  0.0  .120338052511D-03  .130739863380D-10  .000000000000D+00
     .500000000000D+02 -.975312500000D+02  .488698927701D-08  .115060983655D+00
    -.517629086971D-05  .271769147366D-02  .505894422531D-05  .515370693398D+04
     .936000000000D+05 -.186264514923D-08 -.812346842124D+00 -.838190317154D-07
     .957957847475D+00  .280000000000D+03  .201613250883D+01 -.850499712441D-08
    -.591453207829D-09  .100000000000D+01  .230500000000D+04  .000000000000D+00
     .240000000000D+01  .000000000000D+00  .139698386192D-08  .500000000000D+02
     .864000000000D+05  .400000000000D+01
27 24  3 11 18  0  0.0 -.109979882836D-04 -.284217094304D-11  .000000000000D+00
     .140000000000D+02 -.865000000000D+02  .492484799683D-08  .189200079672D+01
    -.460259616375D-05  .125021749409D-01  .534206628799D-05  .515367297745D+04
     .151200000000D+06 -.359490513802D-06  .234641150495D+01 -.726431608200D-07
     .963149181978D+00  .281468750000D+03  .769738447519D+00 -.846356682724D-08
    -.525736184737D-09  .100000000000D+01  .230500000000D+04  .000000000000D+00
     .240000000000D+01  .000000000000D+00  .186264514923D-08  .140000000000D+02
     .144000000000D+06  .400000000000D+01
31 24  3 11 18  0  0.0 -.227964017540D-03  .000000000000D+00  .000000000000D+00
     .340000000000D+02  .187187500000D+02  .436982487789D-08 -.190121871961D+01
     .646337866783D-06  .105379163288D-01  .136401504278D-04  .515369972229D+04
     .151200000000D+06  .109896063805D-06  .280222914832D+00 -.856816768646D-07
     .954826712708D+00  .108343750000D+03  .663599325781D+00 -.781139680460D-08
     .141077305007D-09  .100000000000D+01  .230500000000D+04  .000000000000D+00
     .240000000000D+01  .000000000000D+00 -.135041773319D-07  .340000000000D+02
     .144000000000D+06  .400000000000D+01
22 24  3 11 18  0  0.0  .175763852894D-04 -.591171556152D-11  .000000000000D+00
     .200000000000D+02  .976250000000D+02  .489306095849D-08  .234762636772D+01
     .500306487083D-05  .144411125220D-01  .500492751598D-05  .515371239662D+04
     .151200000000D+06  .216066837311D-06  .139574616952D+01 -.577419996262D-07
     .961487697639D+00  .279125000000D+03 -.114045618444D+01 -.829605984991D-08
     .381444460121D-09  .100000000000D+01  .230500000000D+04  .000000000000D+00
     .240000000000D+01  .000000000000D+00 -.111758708954D-07  .200000000000D+02
     .144000000000D+06  .400000000000D+01
19 24  3 11 18  0  0.0  .452552922070D-03  .534328137292D-11  .000000000000D+00
     .230000000000D+02 -.926562500000D+02  .465019369923D-08 -.241871731651D+01
    -.466592609882D-05  .955891876947D-02  .566244125366D-05  .515368714905D+04
     .151200000000D+06 -.949949026108D-07  .245849681522D+01  .171363353729D-06
     .969158236485D+00  .275281250000D+03  .249231993179D+01 -.825320092180D-08
    -.597167731576D-09  .100000000000D+01  .230500000000D+04  .000000000000D+00
     .240000000000D+01  .000000000000D+00 -.153668224812D-07  .230000000000D+02
     .144000000000D+06  .400000000000D+01
12 24  3 11 18  0  0.0 -.486201606691D-03 -.363797880709D-11  .000000000000D+00
     .470000000000D+02  .901875000000D+02  .490341853278D-08 -.176279746361D+01
     .490993261337D-05  .897473201621D-02  .477209687233D-05  .515369053841D+04
     .151200000000D+06  .968575477600D-07  .137448615600D+01  .132247805595D-06
     .962670807766D+00  .289718750000D+03  .142558156597D+01 -.837284876276D-08
     .519664503255D-09  .100000000000D+01  .230500000000D+04  .000000000000D+00
     .240000000000D+01  .000000000000D+00 -.125728547573D-07  .470000000000D+02
     .144000000000D+06  .400000000000D+01
32 24  3 11 18  0  0.0 -.615437980741D-03 -.136424205266D-11  .000000000000D+00
     .490000000000D+02 -.820312500000D+02  .470948188311D-08  .254214423127D+01
    -.423006713390D-05  .765720650088D-02  .527501106262D-05  .515364466858D+04
     .151200000000D+06 -.931322574615D-08 -.798514122210D+00 -.122934579849D-06
     .961405445070D+00  .276906250000D+03 -.216082337090D+01 -.825712965688D-08
    -.411088552060D-09  .100000000000D+01  .230500000000D+04  .000000000000D+00
     .240000000000D+01  .000000000000D+00  .465661287308D-09  .490000000000D+02
     .144000000000D+06  .400000000000D+01
24 24  3 11 18  0  0.0 -.444815494120D-03 -.545696821064D-11  .000000000000D+00
     .350000000000D+02 -.258437500000D+02  .499627954367D-08 -.653262703585D-02
    -.129640102386D-05  .151317433920D-01  .133924186230D-04  .515373202515D+04
     .151200000000D+06 -.540167093277D-07  .163400337891D+00  .247731804848D-06
     .934513436864D+00  .113843750000D+03  .970438948117D+00 -.845178062202D-08
    -.117147736816D-09  .100000000000D+01  .230500000000D+04  .000000000000D+00
     .240000000000D+01  .000000000000D+00  .232830643654D-08  .350000000000D+02
     .144000000000D+06  .400000000000D+01
16 24  3 11 18  0  0.0 -.343487598002D-03  .875388650456D-11  .000000000000D+00
     .530000000000D+02  .906562500000D+02  .491949063082D-08  .276249923083D+01
     .446476042271D-05  .139977949439D-01  .425428152084D-05  .515374260521D+04
     .151200000000D+06  .279396772385D-07  .139244268983D+01 -.184401869774D-06
     .962186568716D+00  .298875000000D+03  .832324411915D+00 -.827463038585D-08
     .464305054455D-09  .100000000000D+01  .230500000000D+04  .000000000000D+00
     .240000000000D+01  .000000000000D+00 -.102445483208D-07  .530000000000D+02
     .144000000000D+06  .400000000000D+01
